NORAD_CAT_ID,OBJECT_NAME,OBJECT_TYPE,EPOCH,MEAN_MOTION,ECCENTRICITY,INCLINATION,RA_OF_ASC_NODE,ARG_OF_PERICENTER,MEAN_ANOMALY,BSTAR,MEAN_MOTION_DOT,MEAN_MOTION_DDOT,TLE_LINE0,TLE_LINE1,TLE_LINE2,SEMIMAJOR_AXIS,PERIOD,APOGEE,PERIGEE,DECAYED
53997.0,STARLINK-5130,PAYLOAD,2023-03-01 13:26:54,15.0883324,0.0001412,53.2208,120.9718,87.9285,272.1869,-7.2177e-05,-1.436e-05,0.0,0 STARLINK-5130,1 53997U 22125AK  23060.56035029 -.00001436  00000-0 -72177-4 0  9990,2 53997  53.2208 120.9718 0001412  87.9285 272.1869 15.08833240 22980,6917.901,95.438,540.743,538.789,0.0
53997.0,STARLINK-5130,PAYLOAD,2023-03-01 21:23:49,15.0883968,0.0001366,53.2212,119.486,83.1902,276.9245,-3.854e-05,-9.01e-06,0.0,0 STARLINK-5130,1 53997U 22125AK  23060.89154584 -.00000901  00000-0 -38540-4 0  9996,2 53997  53.2212 119.4860 0001366  83.1902 276.9245 15.08839680 22960,6917.881,95.438,540.691,538.801,0.0
53997.0,STARLINK-5130,PAYLOAD,2023-03-02 03:45:21,15.08834967,8.56e-05,53.2198,118.2972,75.995,284.1137,8.9412e-05,1.135e-05,0.0,0 STARLINK-5130,1 53997U 22125AK  23061.15650236  .00001135  00000-0  89412-4 0  9993,2 53997  53.2198 118.2972 0000856  75.9950 284.1137 15.08834967 23076,6917.896,95.438,540.353,539.169,0.0
53997.0,STARLINK-5130,PAYLOAD,2023-03-02 14:53:01,15.08865759,0.0001404,53.2193,116.2155,82.5224,277.5928,0.00015582,2.194e-05,0.0,0 STARLINK-5130,1 53997U 22125AK  23061.62015892  .00002194  00000-0  15582-3 0  9990,2 53997  53.2193 116.2155 0001404  82.5224 277.5928 15.08865759 23145,6917.802,95.436,540.638,538.695,0.0
53997.0,STARLINK-5130,PAYLOAD,2023-03-03 06:46:55,15.08827341,0.0001694,53.2186,113.2465,63.4895,296.6271,0.00013585,1.874e-05,0.0,0 STARLINK-5130,1 53997U 22125AK  23062.28258541  .00001874  00000-0  13585-3 0  9998,2 53997  53.2186 113.2465 0001694  63.4895 296.6271 15.08827341 23240,6917.919,95.438,540.956,538.612,0.0
53997.0,STARLINK-5130,PAYLOAD,2023-03-03 13:08:27,15.08843704,0.0001627,53.2188,112.0505,91.6035,268.5144,9.8294e-05,1.277e-05,0.0,0 STARLINK-5130,1 53997U 22125AK  23062.54753533  .00001277  00000-0  98294-4 0  9996,2 53997  53.2188 112.0505 0001627  91.6035 268.5144 15.08843704 23281,6917.869,95.437,540.86,538.609,0.0
53997.0,STARLINK-5130,PAYLOAD,2023-03-04 01:51:32,15.08837608,0.000188,53.2199,109.6796,50.6976,309.4182,-5.4237e-05,-1.151e-05,0.0,0 STARLINK-5130,1 53997U 22125AK  23063.07746484 -.00001151  00000-0 -54237-4 0  9994,2 53997  53.2199 109.6796 0001880  50.6976 309.4182 15.08837608 23369,6917.888,95.438,541.053,538.452,0.0
53997.0,STARLINK-5130,PAYLOAD,2023-03-04 12:59:13,15.08853807,0.0001604,53.2187,107.5888,118.9173,241.1981,-0.00011857,-2.175e-05,0.0,0 STARLINK-5130,1 53997U 22125AK  23063.54113151 -.00002175  00000-0 -11857-3 0  9992,2 53997  53.2187 107.5888 0001604 118.9173 241.1981 15.08853807 23364,6917.838,95.437,540.813,538.594,0.0
53997.0,STARLINK-5130,PAYLOAD,2023-03-04 19:20:46,15.08846602,0.0001348,53.2196,106.3967,90.6891,269.4256,-0.00017065,-3.003e-05,0.0,0 STARLINK-5130,1 53997U 22125AK  23063.80609727 -.00003003  00000-0 -17065-3 0  9998,2 53997  53.2196 106.3967 0001348  90.6891 269.4256 15.08846602 23472,6917.86,95.437,540.658,538.793,0.0
53997.0,STARLINK-5130,PAYLOAD,2023-03-05 06:28:29,15.0883093,0.0001551,53.2194,104.3175,103.8674,256.249,-0.00015157,-2.699e-05,0.0,0 STARLINK-5130,1 53997U 22125AK  23064.26979034 -.00002699  00000-0 -15157-3 0  9990,2 53997  53.2194 104.3175 0001551 103.8674 256.2490 15.08830930 23540,6917.908,95.438,540.846,538.7,0.0
53997.0,STARLINK-5130,PAYLOAD,2023-03-05 08:03:53,15.08830768,0.0001552,53.2195,104.0205,104.4068,255.7096,-0.00014472,-2.59e-05,0.0,0 STARLINK-5130,1 53997U 22125AK  23064.33603039 -.00002590  00000-0 -14472-3 0  9996,2 53997  53.2195 104.0205 0001552 104.4068 255.7096 15.08830768 23485,6917.909,95.438,540.847,538.7,0.0
53997.0,STARLINK-5130,PAYLOAD,2023-03-05 19:11:34,15.08844739,0.0001457,53.2199,101.9429,89.5147,270.6012,-6.7791e-05,-1.367e-05,0.0,0 STARLINK-5130,1 53997U 22125AK  23064.79970022 -.00001367  00000-0 -67791-4 0  9999,2 53997  53.2199 101.9429 0001457  89.5147 270.6012 15.08844739 23621,6917.866,95.437,540.739,538.723,0.0
53997.0,STARLINK-5130,PAYLOAD,2023-03-06 19:02:20,15.08845615,8.81e-05,53.2194,97.4823,88.6498,271.4595,-2.8545e-05,-7.42e-06,0.0,0 STARLINK-5130,1 53997U 22125AK  23065.79329843 -.00000742  00000-0 -28545-4 0  9999,2 53997  53.2194  97.4823 0000881  88.6498 271.4595 15.08845615 23700,6917.863,95.437,540.338,539.119,0.0
53997.0,STARLINK-5130,PAYLOAD,2023-03-07 01:23:54,15.08825918,0.0001267,53.2196,96.2953,101.59,258.5234,0.00010974,1.458e-05,0.0,0 STARLINK-5130,1 53997U 22125AK  23066.05826874  .00001458  00000-0  10974-3 0  9994,2 53997  53.2196  96.2953 0001267 101.5900 258.5234 15.08825918 23817,6917.923,95.438,540.665,538.912,0.0
53997.0,STARLINK-5130,PAYLOAD,2023-03-07 18:53:09,15.08837953,0.0001194,53.2197,93.0223,83.8171,276.2957,4.3091e-06,-2.19e-06,0.0,0 STARLINK-5130,1 53997U 22125AK  23066.78691030 -.00000219  00000-0  43091-5 0  9991,2 53997  53.2197  93.0223 0001194  83.8171 276.2957 15.08837953 23859,6917.887,95.438,540.578,538.926,0.0
53997.0,STARLINK-5130,PAYLOAD,2023-03-08 07:36:14,15.08841792,0.0001085,53.2207,90.6446,75.7846,284.3267,-3.5961e-05,-8.6e-06,0.0,0 STARLINK-5130,1 53997U 22125AK  23067.31683114 -.00000860  00000-0 -35961-4 0  9994,2 53997  53.2207  90.6446 0001085  75.7846 284.3267 15.08841792 24007,6917.875,95.437,540.491,538.989,0.0
53997.0,STARLINK-5130,PAYLOAD,2023-03-08 18:43:55,15.08842031,0.0001382,53.221,88.5647,80.7324,279.3824,6.1367e-05,6.89e-06,0.0,0 STARLINK-5130,1 53997U 22125AK  23067.78050741  .00000689  00000-0  61367-4 0  9995,2 53997  53.2210  88.5647 0001382  80.7324 279.3824 15.08842031 24007,6917.874,95.437,540.695,538.783,0.0
53997.0,STARLINK-5130,PAYLOAD,2023-03-09 18:34:43,15.08839985,0.0001783,53.2208,84.1045,70.8481,289.2704,1.9038e-05,1.5e-07,0.0,0 STARLINK-5130,1 53997U 22125AK  23068.77411031  .00000015  00000-0  19038-4 0  9999,2 53997  53.2208  84.1045 0001783  70.8481 289.2704 15.08839985 24222,6917.88,95.438,540.979,538.512,0.0
53997.0,STARLINK-5130,PAYLOAD,2023-03-10 10:28:33,15.08849269,0.000125,53.2193,81.126,102.3068,257.8064,4.0934e-05,3.64e-06,0.0,0 STARLINK-5130,1 53997U 22125AK  23069.43649926  .00000364  00000-0  40934-4 0  9995,2 53997  53.2193  81.1260 0001250 102.3068 257.8064 15.08849269 24329,6917.852,95.437,540.582,538.852,0.0
53997.0,STARLINK-5130,PAYLOAD,2023-03-11 00:47:03,15.08828445,9.22e-05,53.2207,78.4513,95.975,264.1347,-0.0001412,-2.533e-05,0.0,0 STARLINK-5130,1 53997U 22125AK  23070.03268017 -.00002533  00000-0 -14120-3 0  9990,2 53997  53.2207  78.4513 0000922  95.9750 264.1347 15.08828445 24413,6917.916,95.438,540.419,539.143,0.0
53997.0,STARLINK-5130,PAYLOAD,2023-03-11 10:19:21,15.08839565,0.0001379,53.22,76.6646,124.2317,235.8806,-0.00012268,-2.24e-05,0.0,0 STARLINK-5130,1 53997U 22125AK  23070.43011172 -.00002240  00000-0 -12268-3 0  9998,2 53997  53.2200  76.6646 0001379 124.2317 235.8806 15.08839565 24471,6917.882,95.438,540.701,538.793,0.0
53997.0,STARLINK-5130,PAYLOAD,2023-03-12 10:10:08,15.08839259,0.000141,53.2201,72.2063,108.1014,252.0131,-2.5195e-05,-6.89e-06,0.0,0 STARLINK-5130,1 53997U 22125AK  23071.42371325 -.00000689  00000-0 -25195-4 0  9996,2 53997  53.2201  72.2063 0001410 108.1014 252.0131 15.08839259 24559,6917.883,95.438,540.723,538.772,0.0
53997.0,STARLINK-5130,PAYLOAD,2023-03-13 00:28:37,15.08835932,0.0001364,53.2201,69.5303,106.118,253.9962,6.3516e-05,7.23e-06,0.0,0 STARLINK-5130,1 53997U 22125AK  23072.01987426  .00000723  00000-0  63516-4 0  9993,2 53997  53.2201  69.5303 0001364 106.1180 253.9962 15.08835932 24719,6917.893,95.438,540.701,538.814,0.0
53997.0,STARLINK-5130,PAYLOAD,2023-03-14 08:16:20,15.08832398,0.0001177,53.2203,63.5839,99.1308,260.9818,4.8302e-05,4.81e-06,0.0,0 STARLINK-5130,1 53997U 22125AK  23073.34468183  .00000481  00000-0  48302-4 0  9991,2 53997  53.2203  63.5839 0001177  99.1308 260.9818 15.08832398 24917,6917.904,95.438,540.583,538.954,0.0
53997.0,STARLINK-5130,PAYLOAD,2023-03-15 03:20:57,15.08846591,7.49e-05,53.2208,60.0111,62.027,298.0798,7.7277e-05,9.43e-06,0.0,0 STARLINK-5130,1 53997U 22125AK  23074.13955004  .00000943  00000-0  77277-4 0  9998,2 53997  53.2208  60.0111 0000749  62.0270 298.0798 15.08846591 25031,6917.86,95.437,540.243,539.207,0.0
53997.0,STARLINK-5130,PAYLOAD,2023-03-15 06:31:42,15.08858901,0.0001226,53.2188,59.4224,88.9847,271.1286,0.00016815,2.391e-05,0.0,0 STARLINK-5130,1 53997U 22125AK  23074.27201936  .00002391  00000-0  16815-3 0  9990,2 53997  53.2188  59.4224 0001226  88.9847 271.1286 15.08858901 25057,6917.823,95.436,540.536,538.839,0.0
53997.0,STARLINK-5130,PAYLOAD,2023-03-15 22:25:35,15.08835948,0.0001333,53.2205,56.4448,82.546,277.5684,1.818e-05,1e-08,0.0,0 STARLINK-5130,1 53997U 22125AK  23074.93443687  .00000001  00000-0  18180-4 0  9998,2 53997  53.2205  56.4448 0001333  82.5460 277.5684 15.08835948 25083,6917.893,95.438,540.68,538.836,0.0
53997.0,STARLINK-5130,PAYLOAD,2023-03-16 07:57:53,15.08843019,0.0001371,53.22,54.6614,81.7441,278.3707,6.7792e-05,7.91e-06,0.0,0 STARLINK-5130,1 53997U 22125AK  23075.33187021  .00000791  00000-0  67792-4 0  9999,2 53997  53.2200  54.6614 0001371  81.7441 278.3707 15.08843019 25213,6917.871,95.437,540.685,538.788,0.0
53997.0,STARLINK-5130,PAYLOAD,2023-03-16 15:54:50,15.08835398,0.0001254,53.2204,53.1768,81.2294,278.884,-6.6308e-05,-1.343e-05,0.0,0 STARLINK-5130,1 53997U 22125AK  23075.66307958 -.00001343  00000-0 -66308-4 0  9996,2 53997  53.2204  53.1768 0001254  81.2294 278.8840 15.08835398 25261,6917.894,95.438,540.627,538.892,0.0
53997.0,STARLINK-5130,PAYLOAD,2023-03-17 07:48:42,15.08836063,0.000126,53.2194,50.2022,85.4509,274.6627,-0.00019031,-3.315e-05,0.0,0 STARLINK-5130,1 53997U 22125AK  23076.32548636 -.00003315  00000-0 -19031-3 0  9991,2 53997  53.2194  50.2022 0001260  85.4509 274.6627 15.08836063 25292,6917.892,95.438,540.629,538.886,0.0
